[{"OBJECT_NAME":"STARLINK-3806","OBJECT_ID":"2022-045AZ","EPOCH":"2026-03-09T14:31:29.590176","MEAN_MOTION":15.08842574,"ECCENTRICITY":0.0001285,"INCLINATION":53.2176,"RA_OF_ASC_NODE":189.5022,"ARG_OF_PERICENTER":90.0541,"MEAN_ANOMALY":270.0598,"EPHEMERIS_TYPE":0,"CLASSIFICATION_TYPE":"U","NORAD_CAT_ID":52378,"ELEMENT_SET_NO":999,"REV_AT_EPOCH":21591,"BSTAR":2.3998e-5,"MEAN_MOTION_DOT":9.4e-7,"MEAN_MOTION_DDOT":0},{"OBJECT_NAME":"OBJECT B","OBJECT_ID":"2025-013B","EPOCH":"2026-03-09T22:32:54.215232","MEAN_MOTION":15.10568465,"ECCENTRICITY":0.00132175,"INCLINATION":97.6475,"RA_OF_ASC_NODE":238.3035,"ARG_OF_PERICENTER":355.2799,"MEAN_ANOMALY":4.8303,"EPHEMERIS_TYPE":0,"CLASSIFICATION_TYPE":"U","NORAD_CAT_ID":62730,"ELEMENT_SET_NO":999,"REV_AT_EPOCH":6234,"BSTAR":0.00034549224,"MEAN_MOTION_DOT":5.648e-5,"MEAN_MOTION_DDOT":0}]
